KUIPER-00117            
1 65949U 25228C   26190.99460212  .00001734  00000+0  25645-3 0  9992
2 65949  51.8971 177.2429 0000599  68.4520 291.6506 14.79924310 41370
KUIPER-00121            
1 65950U 25228D   26190.96622467  .00001737  00000+0  25676-3 0  9990
2 65950  51.8986 172.3806 0000571  60.9068 299.1952 14.79936798 41446
KUIPER-00122            
1 65951U 25228E   26190.68531849  .00001652  00000+0  24568-3 0  9998
2 65951  51.8983 183.5962 0000489  71.3134 288.7881 14.79931187 41261
KUIPER-00123            
1 65952U 25228F   26191.39436924  .00001381  00000+0  21003-3 0  9996
2 65952  51.8966 180.4730 0000520  47.6866 312.4140 14.79939352 41362
KUIPER-00124            
1 65953U 25228G   26191.33493146  .00001098  00000+0  17300-3 0  9990
2 65953  51.8980 173.2244 0000538  68.2055 291.8964 14.79936599 41462
KUIPER-00125            
1 65954U 25228H   26191.28360404  .00001794  00000+0  26435-3 0  9997
2 65954  51.8986 158.4948 0000639  78.6434 281.4600 14.79925429 41667
KUIPER-00126            
1 65955U 25228J   26191.36330656  .00001621  00000+0  24149-3 0  9992
2 65955  51.8986 178.1292 0000642  70.2230 289.8801 14.79939061 41397
KUIPER-00127            
1 65956U 25228K   26190.74674681  .00001762  00000+0  26015-3 0  9993
2 65956  51.9002 173.3255 0000661  72.4701 287.6334 14.79918988 41417
KUIPER-00128            
1 65957U 25228L   26191.33764267  .00001704  00000+0  25251-3 0  9997
2 65957  51.9004 170.7778 0000574  69.9768 290.1256 14.79934195 41496
KUIPER-00129            
1 65958U 25228M   26191.30927175  .00001700  00000+0  25196-3 0  9998
2 65958  51.8987 165.8844 0000571  71.8997 288.2028 14.79935217 41567
KUIPER-00130            
1 65959U 25228N   26190.66498928 -.00017205  00000+0 -22306-2 0  9994
2 65959  51.9040 171.2650 0002275 267.1115  92.9587 14.79985248 31726
KUIPER-00134            
1 65960U 25228P   26191.34168275  .00030741  00000+0  72152-3 0  9994
2 65960  51.8718  84.6633 0007015  36.2596 323.8867 15.41755022 42692
KUIPER-00135            
1 65961U 25228Q   26190.63129289  .00000845  00000+0  13983-3 0  9997
2 65961  51.9006 171.4694 0000534  72.1439 287.9582 14.79924893 41428
KUIPER-00136            
1 65962U 25228R   26191.34302713  .00001750  00000+0  25851-3 0  9995
2 65962  51.9002 165.7776 0000659  60.8304 299.2724 14.79939261 41569
KUIPER-00137            
1 65963U 25228S   26191.34572675  .00001757  00000+0  25933-3 0  9990
2 65963  51.9017 163.2590 0000700  68.1165 291.9872 14.79940713 41608
KUIPER-00138            
1 65964U 25228T   26191.31466694  .00001770  00000+0  26115-3 0  9999
2 65964  51.8966 160.8263 0000662  73.8645 286.2390 14.79931296 41635
